H-2A R/B                
1 28932U 06002B   26086.42322090  .00011470  00000+0  56709-3 0  9998
2 28932  98.2443 234.9807 0052384 180.3935 179.7264 15.16801424 97127
RESURS-DK 1             
1 29228U 06021A   26086.58657914  .00002186  00000+0  13015-3 0  9998
2 29228  69.9337 190.7276 0001059  58.7588 301.3682 15.12855784 90233
CZ-4B R/B               
1 29507U 06046C   26086.55084794  .00004357  00000+0  22061-3 0  9995
2 29507  97.5562 131.4107 0032614 203.0777 156.8993 15.17078112 62752
CZ-2C R/B               
1 31114U 07010B   26086.33845301  .00000135  00000+0  81390-4 0  9990
2 31114  98.3997 198.7343 0057989 242.2946 117.2341 14.20252407982228
COSMO-SKYMED 1          
1 31598U 07023A   26086.58275703  .00002947  00000+0  26362-3 0  9990
2 31598  97.8878 277.7607 0000932  96.6935 263.4392 14.96660311 17580
COSMOS 2428             
1 31792U 07029A   26086.58744164 -.00000048  00000+0 -28262-6 0  9990
2 31792  70.9436 165.7800 0009688 258.7015 101.3018 14.12948205966628
SL-16 R/B               
1 31793U 07029B   26086.60282032  .00000071  00000+0  61500-4 0  9999
2 31793  70.9749 134.7316 0002652 277.5859 197.0654 14.14843222967908
KORONAS-FOTON           
1 33504U 09003A   26086.52721901  .00013163  00000+0  28935-3 0  9999
2 33504  82.4276 257.3237 0011779  92.0197 268.2399 15.43783957948493
CZ-2C R/B               
1 37731U 11030B   26086.45498997  .00001430  00000+0  18632-3 0  9993
2 37731  97.8574  43.3667 0051153 293.3523 178.1677 14.81282743792728
H-2A R/B                
1 38341U 12025E   26086.46236238  .00003426  00000+0  31176-3 0  9990
2 38341  98.4761  54.9362 0042697 254.1145 105.5365 14.95289454750878
SHIJIAN-16 (SJ-16)      
1 39358U 13057A   26086.59500351  .00001316  00000+0  13104-3 0  9996
2 39358  74.9723 151.1936 0015256  66.2582 294.0204 14.92414984674178
SL-4 R/B                
1 39679U 14021B   26086.48030547  .00017930  00000+0  38762-3 0  9993
2 39679  51.6043 250.4470 0095788 167.7835 192.5504 15.39776639659014
