CCSDS_OMM_VERS = 2.0
CREATION_DATE  = 
ORIGINATOR     = 

OBJECT_NAME    = H-2A R/B
OBJECT_ID      = 2006-002B
CENTER_NAME    = EARTH
REF_FRAME      = TEME
TIME_SYSTEM    = UTC
MEAN_ELEMENT_THEORY = SGP/SGP4

EPOCH          = 2026-03-27T10:09:26.285760
MEAN_MOTION    = 15.16801424
ECCENTRICITY   = .0052384
INCLINATION    = 98.2443
RA_OF_ASC_NODE = 234.9807
ARG_OF_PERICENTER = 180.3935
MEAN_ANOMALY   = 179.7264

EPHEMERIS_TYPE = 0
CLASSIFICATION_TYPE = U
NORAD_CAT_ID   = 28932
ELEMENT_SET_NO = 999
REV_AT_EPOCH   = 9712
BSTAR          = .56709018E-3
MEAN_MOTION_DOT = .1147E-3
MEAN_MOTION_DDOT = 0

CCSDS_OMM_VERS = 2.0
CREATION_DATE  = 
ORIGINATOR     = 

OBJECT_NAME    = RESURS-DK 1
OBJECT_ID      = 2006-021A
CENTER_NAME    = EARTH
REF_FRAME      = TEME
TIME_SYSTEM    = UTC
MEAN_ELEMENT_THEORY = SGP/SGP4

EPOCH          = 2026-03-27T14:04:40.437696
MEAN_MOTION    = 15.12855784
ECCENTRICITY   = .00010593
INCLINATION    = 69.9337
RA_OF_ASC_NODE = 190.7276
ARG_OF_PERICENTER = 58.7588
MEAN_ANOMALY   = 301.3682

EPHEMERIS_TYPE = 0
CLASSIFICATION_TYPE = U
NORAD_CAT_ID   = 29228
ELEMENT_SET_NO = 999
REV_AT_EPOCH   = 9023
BSTAR          = .13014887E-3
MEAN_MOTION_DOT = .2186E-4
MEAN_MOTION_DDOT = 0

CCSDS_OMM_VERS = 2.0
CREATION_DATE  = 
ORIGINATOR     = 

OBJECT_NAME    = CZ-4B R/B
OBJECT_ID      = 2006-046C
CENTER_NAME    = EARTH
REF_FRAME      = TEME
TIME_SYSTEM    = UTC
MEAN_ELEMENT_THEORY = SGP/SGP4

EPOCH          = 2026-03-27T13:13:13.262016
MEAN_MOTION    = 15.17078112
ECCENTRICITY   = .00326145
INCLINATION    = 97.5562
RA_OF_ASC_NODE = 131.4107
ARG_OF_PERICENTER = 203.0777
MEAN_ANOMALY   = 156.8993

EPHEMERIS_TYPE = 0
CLASSIFICATION_TYPE = U
NORAD_CAT_ID   = 29507
ELEMENT_SET_NO = 999
REV_AT_EPOCH   = 6275
BSTAR          = .22060887E-3
MEAN_MOTION_DOT = .4357E-4
MEAN_MOTION_DDOT = 0

CCSDS_OMM_VERS = 2.0
CREATION_DATE  = 
ORIGINATOR     = 

OBJECT_NAME    = CZ-2C R/B
OBJECT_ID      = 2007-010B
CENTER_NAME    = EARTH
REF_FRAME      = TEME
TIME_SYSTEM    = UTC
MEAN_ELEMENT_THEORY = SGP/SGP4

EPOCH          = 2026-03-27T08:07:22.340064
MEAN_MOTION    = 14.20252407
ECCENTRICITY   = .00579896
INCLINATION    = 98.3997
RA_OF_ASC_NODE = 198.7343
ARG_OF_PERICENTER = 242.2946
MEAN_ANOMALY   = 117.2341

EPHEMERIS_TYPE = 0
CLASSIFICATION_TYPE = U
NORAD_CAT_ID   = 31114
ELEMENT_SET_NO = 999
REV_AT_EPOCH   = 98222
BSTAR          = .81389877E-4
MEAN_MOTION_DOT = .135E-5
MEAN_MOTION_DDOT = 0

CCSDS_OMM_VERS = 2.0
CREATION_DATE  = 
ORIGINATOR     = 

OBJECT_NAME    = COSMO-SKYMED 1
OBJECT_ID      = 2007-023A
CENTER_NAME    = EARTH
REF_FRAME      = TEME
TIME_SYSTEM    = UTC
MEAN_ELEMENT_THEORY = SGP/SGP4

EPOCH          = 2026-03-27T13:59:10.207392
MEAN_MOTION    = 14.96660311
ECCENTRICITY   = .00009328
INCLINATION    = 97.8878
RA_OF_ASC_NODE = 277.7607
ARG_OF_PERICENTER = 96.6935
MEAN_ANOMALY   = 263.4392

EPHEMERIS_TYPE = 0
CLASSIFICATION_TYPE = U
NORAD_CAT_ID   = 31598
ELEMENT_SET_NO = 999
REV_AT_EPOCH   = 1758
BSTAR          = .2636244E-3
MEAN_MOTION_DOT = .2947E-4
MEAN_MOTION_DDOT = 0

CCSDS_OMM_VERS = 2.0
CREATION_DATE  = 
ORIGINATOR     = 

OBJECT_NAME    = COSMOS 2428
OBJECT_ID      = 2007-029A
CENTER_NAME    = EARTH
REF_FRAME      = TEME
TIME_SYSTEM    = UTC
MEAN_ELEMENT_THEORY = SGP/SGP4

EPOCH          = 2026-03-27T14:05:54.957696
MEAN_MOTION    = 14.12948205
ECCENTRICITY   = .00096887
INCLINATION    = 70.9436
RA_OF_ASC_NODE = 165.7800
ARG_OF_PERICENTER = 258.7015
MEAN_ANOMALY   = 101.3018

EPHEMERIS_TYPE = 0
CLASSIFICATION_TYPE = U
NORAD_CAT_ID   = 31792
ELEMENT_SET_NO = 999
REV_AT_EPOCH   = 96662
BSTAR          = -.282623E-6
MEAN_MOTION_DOT = -.48E-6
MEAN_MOTION_DDOT = 0

CCSDS_OMM_VERS = 2.0
CREATION_DATE  = 
ORIGINATOR     = 

OBJECT_NAME    = SL-16 R/B
OBJECT_ID      = 2007-029B
CENTER_NAME    = EARTH
REF_FRAME      = TEME
TIME_SYSTEM    = UTC
MEAN_ELEMENT_THEORY = SGP/SGP4

EPOCH          = 2026-03-27T14:28:03.675648
MEAN_MOTION    = 14.14843222
ECCENTRICITY   = .00026523
INCLINATION    = 70.9749
RA_OF_ASC_NODE = 134.7316
ARG_OF_PERICENTER = 277.5859
MEAN_ANOMALY   = 197.0654

EPHEMERIS_TYPE = 0
CLASSIFICATION_TYPE = U
NORAD_CAT_ID   = 31793
ELEMENT_SET_NO = 999
REV_AT_EPOCH   = 96790
BSTAR          = .61499886E-4
MEAN_MOTION_DOT = .71E-6
MEAN_MOTION_DDOT = 0

CCSDS_OMM_VERS = 2.0
CREATION_DATE  = 
ORIGINATOR     = 

OBJECT_NAME    = KORONAS-FOTON
OBJECT_ID      = 2009-003A
CENTER_NAME    = EARTH
REF_FRAME      = TEME
TIME_SYSTEM    = UTC
MEAN_ELEMENT_THEORY = SGP/SGP4

EPOCH          = 2026-03-27T12:39:11.722464
MEAN_MOTION    = 15.43783957
ECCENTRICITY   = .00117793
INCLINATION    = 82.4276
RA_OF_ASC_NODE = 257.3237
ARG_OF_PERICENTER = 92.0197
MEAN_ANOMALY   = 268.2399

EPHEMERIS_TYPE = 0
CLASSIFICATION_TYPE = U
NORAD_CAT_ID   = 33504
ELEMENT_SET_NO = 999
REV_AT_EPOCH   = 94849
BSTAR          = .28935246E-3
MEAN_MOTION_DOT = .13163E-3
MEAN_MOTION_DDOT = 0

CCSDS_OMM_VERS = 2.0
CREATION_DATE  = 
ORIGINATOR     = 

OBJECT_NAME    = CZ-2C R/B
OBJECT_ID      = 2011-030B
CENTER_NAME    = EARTH
REF_FRAME      = TEME
TIME_SYSTEM    = UTC
MEAN_ELEMENT_THEORY = SGP/SGP4

EPOCH          = 2026-03-27T10:55:11.133408
MEAN_MOTION    = 14.81282743
ECCENTRICITY   = .0051153
INCLINATION    = 97.8574
RA_OF_ASC_NODE = 43.3667
ARG_OF_PERICENTER = 293.3523
MEAN_ANOMALY   = 178.1677

EPHEMERIS_TYPE = 0
CLASSIFICATION_TYPE = U
NORAD_CAT_ID   = 37731
ELEMENT_SET_NO = 999
REV_AT_EPOCH   = 79272
BSTAR          = .1863235E-3
MEAN_MOTION_DOT = .143E-4
MEAN_MOTION_DDOT = 0

CCSDS_OMM_VERS = 2.0
CREATION_DATE  = 
ORIGINATOR     = 

OBJECT_NAME    = H-2A R/B
OBJECT_ID      = 2012-025E
CENTER_NAME    = EARTH
REF_FRAME      = TEME
TIME_SYSTEM    = UTC
MEAN_ELEMENT_THEORY = SGP/SGP4

EPOCH          = 2026-03-27T11:05:48.109632
MEAN_MOTION    = 14.95289454
ECCENTRICITY   = .00426978
INCLINATION    = 98.4761
RA_OF_ASC_NODE = 54.9362
ARG_OF_PERICENTER = 254.1145
MEAN_ANOMALY   = 105.5365

EPHEMERIS_TYPE = 0
CLASSIFICATION_TYPE = U
NORAD_CAT_ID   = 38341
ELEMENT_SET_NO = 999
REV_AT_EPOCH   = 75087
BSTAR          = .31176276E-3
MEAN_MOTION_DOT = .3426E-4
MEAN_MOTION_DDOT = 0

CCSDS_OMM_VERS = 2.0
CREATION_DATE  = 
ORIGINATOR     = 

OBJECT_NAME    = SHIJIAN-16 (SJ-16)
OBJECT_ID      = 2013-057A
CENTER_NAME    = EARTH
REF_FRAME      = TEME
TIME_SYSTEM    = UTC
MEAN_ELEMENT_THEORY = SGP/SGP4

EPOCH          = 2026-03-27T14:16:48.303264
MEAN_MOTION    = 14.92414984
ECCENTRICITY   = .00152561
INCLINATION    = 74.9723
RA_OF_ASC_NODE = 151.1936
ARG_OF_PERICENTER = 66.2582
MEAN_ANOMALY   = 294.0204

EPHEMERIS_TYPE = 0
CLASSIFICATION_TYPE = U
NORAD_CAT_ID   = 39358
ELEMENT_SET_NO = 999
REV_AT_EPOCH   = 67417
BSTAR          = .13104428E-3
MEAN_MOTION_DOT = .1316E-4
MEAN_MOTION_DDOT = 0

CCSDS_OMM_VERS = 2.0
CREATION_DATE  = 
ORIGINATOR     = 

OBJECT_NAME    = SL-4 R/B
OBJECT_ID      = 2014-021B
CENTER_NAME    = EARTH
REF_FRAME      = TEME
TIME_SYSTEM    = UTC
MEAN_ELEMENT_THEORY = SGP/SGP4

EPOCH          = 2026-03-27T11:31:38.392608
MEAN_MOTION    = 15.39776639
ECCENTRICITY   = .00957884
INCLINATION    = 51.6043
RA_OF_ASC_NODE = 250.4470
ARG_OF_PERICENTER = 167.7835
MEAN_ANOMALY   = 192.5504

EPHEMERIS_TYPE = 0
CLASSIFICATION_TYPE = U
NORAD_CAT_ID   = 39679
ELEMENT_SET_NO = 999
REV_AT_EPOCH   = 65901
BSTAR          = .38761849E-3
MEAN_MOTION_DOT = .1793E-3
MEAN_MOTION_DDOT = 0

